NORAD_CAT_ID,OBJECT_NAME,OBJECT_TYPE,EPOCH,MEAN_MOTION,ECCENTRICITY,INCLINATION,RA_OF_ASC_NODE,ARG_OF_PERICENTER,MEAN_ANOMALY,BSTAR,MEAN_MOTION_DOT,MEAN_MOTION_DDOT,TLE_LINE0,TLE_LINE1,TLE_LINE2,SEMIMAJOR_AXIS,PERIOD,APOGEE,PERIGEE,DECAYED
53183.0,STARLINK-4268,PAYLOAD,2023-03-16 18:00:03,15.08827346,0.0001189,53.2185,337.5593,74.2818,285.8305,0.00083811,0.00013071,0.0,0 STARLINK-4268,1 53183U 22083BD  23075.75003523  .00013071  00000-0  83811-3 0  9993,2 53183  53.2185 337.5593 0001189  74.2818 285.8305 15.08827346 38084,6917.919,95.438,540.607,538.962,0.0
53183.0,STARLINK-4268,PAYLOAD,2023-03-16 21:10:49,15.08824218,8.08e-05,53.2186,336.9644,102.7777,257.3305,0.00079143,0.00012325,0.0,0 STARLINK-4268,1 53183U 22083BD  23075.88251674  .00012325  00000-0  79143-3 0  9993,2 53183  53.2186 336.9644 0000808 102.7777 257.3305 15.08824218 37463,6917.929,95.439,540.353,539.235,0.0
53183.0,STARLINK-4268,PAYLOAD,2023-03-17 00:21:35,15.08822757,9.9e-05,53.2187,336.3698,80.049,280.0614,0.00073047,0.00011351,0.0,0 STARLINK-4268,1 53183U 22083BD  23076.01499968  .00011351  00000-0  73047-3 0  9994,2 53183  53.2187 336.3698 0000990  80.0490 280.0614 15.08822757 38125,6917.933,95.439,540.483,539.113,0.0
53183.0,STARLINK-4268,PAYLOAD,2023-03-17 09:53:54,15.08837362,7.59e-05,53.2177,334.5844,89.3431,270.7648,0.00051396,7.901e-05,0.0,0 STARLINK-4268,1 53183U 22083BD  23076.41243764  .00007901  00000-0  51396-3 0  9998,2 53183  53.2177 334.5844 0000759  89.3431 270.7648 15.08837362 37543,6917.888,95.438,540.279,539.228,0.0
53183.0,STARLINK-4268,PAYLOAD,2023-03-17 21:01:36,15.08841562,9.18e-05,53.2186,332.5066,110.7379,249.3712,0.00041322,6.295e-05,0.0,0 STARLINK-4268,1 53183U 22083BD  23076.87611814  .00006295  00000-0  41322-3 0  9996,2 53183  53.2186 332.5066 0000918 110.7379 249.3712 15.08841562 37613,6917.876,95.437,540.376,539.106,0.0
53183.0,STARLINK-4268,PAYLOAD,2023-03-18 01:47:45,15.08851089,9.29e-05,53.2189,331.6153,101.0838,259.0258,0.00072889,0.00011335,0.0,0 STARLINK-4268,1 53183U 22083BD  23077.07483624  .00011335  00000-0  72889-3 0  9998,2 53183  53.2189 331.6153 0000929 101.0838 259.0258 15.08851089 38280,6917.846,95.437,540.354,539.069,0.0
53183.0,STARLINK-4268,PAYLOAD,2023-03-18 09:44:41,15.08843031,9.13e-05,53.2178,330.1261,91.3512,268.7585,0.00018495,2.657e-05,0.0,0 STARLINK-4268,1 53183U 22083BD  23077.40603680  .00002657  00000-0  18495-3 0  9991,2 53183  53.2178 330.1261 0000913  91.3512 268.7585 15.08843031 38339,6917.871,95.437,540.368,539.105,0.0
53183.0,STARLINK-4268,PAYLOAD,2023-03-18 22:27:46,15.08851454,0.00011,53.2183,327.7507,97.9104,262.2013,0.0004287,6.544e-05,0.0,0 STARLINK-4268,1 53183U 22083BD  23077.93595475  .00006544  00000-0  42870-3 0  9994,2 53183  53.2183 327.7507 0001100  97.9104 262.2013 15.08851454 37778,6917.845,95.437,540.471,538.949,0.0
53183.0,STARLINK-4268,PAYLOAD,2023-03-19 09:35:28,15.08857477,0.0001151,53.2174,325.6653,71.3726,288.7391,0.00055082,8.493e-05,0.0,0 STARLINK-4268,1 53183U 22083BD  23078.39963076  .00008493  00000-0  55082-3 0  9995,2 53183  53.2174 325.6653 0001151  71.3726 288.7391 15.08857477 37840,6917.827,95.436,540.488,538.896,0.0
53183.0,STARLINK-4268,PAYLOAD,2023-03-19 20:43:09,15.08850033,0.0001394,53.2176,323.5878,75.9338,284.1809,0.00026201,3.886e-05,0.0,0 STARLINK-4268,1 53183U 22083BD  23078.86331009  .00003886  00000-0  26201-3 0  9994,2 53183  53.2176 323.5878 0001394  75.9338 284.1809 15.08850033 38550,6917.85,95.437,540.679,538.75,0.0
53183.0,STARLINK-4268,PAYLOAD,2023-03-19 22:18:32,15.0885169,0.0001231,53.2176,323.2876,72.0305,288.0821,0.00019115,2.757e-05,0.0,0 STARLINK-4268,1 53183U 22083BD  23078.92954839  .00002757  00000-0  19115-3 0  9995,2 53183  53.2176 323.2876 0001231  72.0305 288.0821 15.08851690 37924,6917.845,95.437,540.561,538.858,0.0
53183.0,STARLINK-4268,PAYLOAD,2023-03-20 09:26:15,15.0884387,0.0001269,53.2174,321.2064,60.982,299.1299,7.7583e-06,-1.64e-06,0.0,0 STARLINK-4268,1 53183U 22083BD  23079.39323034 -.00000164  00000-0  77583-5 0  9990,2 53183  53.2174 321.2064 0001269  60.9820 299.1299 15.08843870 38630,6917.869,95.437,540.611,538.856,0.0
53183.0,STARLINK-4268,PAYLOAD,2023-03-20 22:09:20,15.08839777,0.000146,53.2178,318.8259,65.8732,294.2413,-6.7198e-05,-1.357e-05,0.0,0 STARLINK-4268,1 53183U 22083BD  23079.92315480 -.00001357  00000-0 -67198-4 0  9991,2 53183  53.2178 318.8259 0001460  65.8732 294.2413 15.08839777 38715,6917.881,95.438,540.756,538.736,0.0
53183.0,STARLINK-4268,PAYLOAD,2023-03-21 22:00:07,15.0884584,9.13e-05,53.2162,314.3648,57.4814,302.6266,0.00018787,2.704e-05,0.0,0 STARLINK-4268,1 53183U 22083BD  23080.91675013  .00002704  00000-0  18787-3 0  9997,2 53183  53.2162 314.3648 0000913  57.4814 302.6266 15.08845840 38225,6917.863,95.437,540.359,539.096,0.0
53183.0,STARLINK-4268,PAYLOAD,2023-03-22 01:10:53,15.08852238,0.000113,53.2163,313.7699,62.5666,297.5441,0.00031725,4.766e-05,0.0,0 STARLINK-4268,1 53183U 22083BD  23081.04922858  .00004766  00000-0  31725-3 0  9991,2 53183  53.2163 313.7699 0001130  62.5666 297.5441 15.08852238 38887,6917.843,95.437,540.49,538.926,0.0
53183.0,STARLINK-4268,PAYLOAD,2023-03-22 20:15:31,15.08845534,0.0001154,53.216,310.1994,71.0849,289.0268,0.00022156,3.241e-05,0.0,0 STARLINK-4268,1 53183U 22083BD  23081.84411153  .00003241  00000-0  22156-3 0  9995,2 53183  53.2160 310.1994 0001154  71.0849 289.0268 15.08845534 39006,6917.863,95.437,540.527,538.93,0.0
53183.0,STARLINK-4268,PAYLOAD,2023-03-22 21:50:54,15.08846824,0.0001185,53.2164,309.9023,75.8296,284.2827,0.00022844,3.35e-05,0.0,0 STARLINK-4268,1 53183U 22083BD  23081.91035077  .00003350  00000-0  22844-3 0  9995,2 53183  53.2164 309.9023 0001185  75.8296 284.2827 15.08846824 38371,6917.86,95.437,540.544,538.905,0.0
53183.0,STARLINK-4268,PAYLOAD,2023-03-23 20:06:18,15.08841879,0.0001089,53.2162,305.7413,74.5807,285.5305,7.0872e-05,8.4e-06,0.0,0 STARLINK-4268,1 53183U 22083BD  23082.83771361  .00000840  00000-0  70872-4 0  9996,2 53183  53.2162 305.7413 0001089  74.5807 285.5305 15.08841879 39150,6917.875,95.437,540.493,538.986,0.0
53183.0,STARLINK-4268,PAYLOAD,2023-03-23 21:41:41,15.08843879,0.000109,53.2154,305.4468,83.1765,276.9351,0.00011949,1.615e-05,0.0,0 STARLINK-4268,1 53183U 22083BD  23082.90395241  .00001615  00000-0  11949-3 0  9993,2 53183  53.2154 305.4468 0001090  83.1765 276.9351 15.08843879 38526,6917.869,95.437,540.488,538.979,0.0
53183.0,STARLINK-4268,PAYLOAD,2023-03-24 00:52:27,15.08852494,0.000108,53.2167,304.8497,82.5899,277.5216,0.00029075,4.344e-05,0.0,0 STARLINK-4268,1 53183U 22083BD  23083.03642866  .00004344  00000-0  29075-3 0  9997,2 53183  53.2167 304.8497 0001080  82.5899 277.5216 15.08852494 39188,6917.842,95.437,540.454,538.96,0.0
53183.0,STARLINK-4268,PAYLOAD,2023-03-24 21:32:27,15.08866736,0.0001087,53.2162,300.9881,103.7319,256.3794,0.00053337,8.217e-05,0.0,0 STARLINK-4268,1 53183U 22083BD  23083.89753737  .00008217  00000-0  53337-3 0  9992,2 53183  53.2162 300.9881 0001087 103.7319 256.3794 15.08866736 38670,6917.799,95.436,540.416,538.912,0.0
53183.0,STARLINK-4268,PAYLOAD,2023-03-25 00:43:13,15.08875718,0.0001068,53.2161,300.3884,86.3133,273.7981,0.00071131,0.00011062,0.0,0 STARLINK-4268,1 53183U 22083BD  23084.03001262  .00011062  00000-0  71131-3 0  9992,2 53183  53.2161 300.3884 0001068  86.3133 273.7981 15.08875718 39330,6917.771,95.435,540.375,538.897,0.0
53183.0,STARLINK-4268,PAYLOAD,2023-03-25 19:47:53,15.08804874,0.0001161,53.2153,296.8233,101.275,258.8372,-0.00085573,-0.00013868,0.0,0 STARLINK-4268,1 53183U 22083BD  23084.82492103 -.00013868  00000-0 -85573-3 0  9990,2 53183  53.2153 296.8233 0001161 101.2750 258.8372 15.08804874 39450,6917.988,95.44,540.656,539.05,0.0
53183.0,STARLINK-4268,PAYLOAD,2023-03-25 21:23:16,15.0880423,0.0001179,53.2155,296.5244,115.041,245.0705,-0.00072864,-0.00011854,0.0,0 STARLINK-4268,1 53183U 22083BD  23084.89116191 -.00011854  00000-0 -72864-3 0  9999,2 53183  53.2155 296.5244 0001179 115.0410 245.0705 15.08804230 38820,6917.99,95.44,540.67,539.039,0.0
53183.0,STARLINK-4268,PAYLOAD,2023-03-26 19:38:42,15.08819644,0.0001146,53.2157,292.3607,120.9387,239.1718,0.00096141,0.00015037,0.0,0 STARLINK-4268,1 53183U 22083BD  23085.81854452  .00015037  00000-0  96141-3 0  9990,2 53183  53.2157 292.3607 0001146 120.9387 239.1718 15.08819644 39601,6917.943,95.439,540.6,539.015,0.0
53183.0,STARLINK-4268,PAYLOAD,2023-03-26 21:14:05,15.08824857,0.0001149,53.2159,292.0635,121.0031,239.1074,0.0011047,0.0001733,0.0,0 STARLINK-4268,1 53183U 22083BD  23085.88478497  .00017330  00000-0  11047-2 0  9997,2 53183  53.2159 292.0635 0001149 121.0031 239.1074 15.08824857 38978,6917.927,95.439,540.587,538.997,0.0
53183.0,STARLINK-4268,PAYLOAD,2023-03-27 13:07:56,15.08856917,0.0001125,53.2162,289.0898,123.9133,236.1966,0.0012472,0.00019626,0.0,0 STARLINK-4268,1 53183U 22083BD  23086.54718127  .00019626  00000-0  12472-2 0  9991,2 53183  53.2162 289.0898 0001125 123.9133 236.1966 15.08856917 39719,6917.829,95.436,540.472,538.915,0.0
53183.0,STARLINK-4268,PAYLOAD,2023-03-27 21:04:51,15.08877677,0.0001042,53.216,287.6037,115.861,244.2489,0.0015723,0.0002485,0.0,0 STARLINK-4268,1 53183U 22083BD  23086.87837426  .00024850  00000-0  15723-2 0  9998,2 53183  53.2160 287.6037 0001042 115.8610 244.2489 15.08877677 39125,6917.765,95.435,540.351,538.909,0.0
53183.0,STARLINK-4268,PAYLOAD,2023-03-28 12:58:42,15.08870865,0.0001033,53.2165,284.6299,106.4087,253.7019,0.0013568,0.0002139,0.0,0 STARLINK-4268,1 53183U 22083BD  23087.54076887  .00021390  00000-0  13568-2 0  9990,2 53183  53.2165 284.6299 0001033 106.4087 253.7019 15.08870865 39868,6917.786,95.436,540.366,538.936,0.0
53183.0,STARLINK-4268,PAYLOAD,2023-03-28 19:20:14,15.08872294,0.0001093,53.2167,283.4403,97.8317,262.28,0.0014404,0.00022731,0.0,0 STARLINK-4268,1 53183U 22083BD  23087.80572597  .00022731  00000-0  14404-2 0  9998,2 53183  53.2167 283.4403 0001093  97.8317 262.2800 15.08872294 39264,6917.782,95.436,540.403,538.891,0.0
